NOAA 15                 
1 25338U 98030A   24303.12020414  .00000750  00000+0  32748-3 0  9995
2 25338  98.5590 327.4042 0009223 296.0726  63.9505 14.26767957376535
DMSP 5D-3 F16 (USA 172) 
1 28054U 03048A   24303.17453191  .00000725  00000+0  40422-3 0  9995
2 28054  99.0226 310.9255 0007961  40.7619  86.8307 14.14173139 85216
NOAA 18                 
1 28654U 05018A   24303.22450934  .00000808  00000+0  45297-3 0  9995
2 28654  98.8650  19.0217 0014783  46.7572 313.4832 14.13391797  2198
METEOSAT-9 (MSG-2)      
1 28912U 05049B   24303.00190632  .00000136  00000+0  00000+0 0  9991
2 28912   7.9933  59.7041 0002148 182.4092 202.1197  1.00275174 69107
EWS-G1 (GOES 13)        
1 29155U 06018A   24302.77062625 -.00000209  00000+0  00000+0 0  9993
2 29155   2.9728  83.6374 0062791 256.1633 299.6285  0.98833048 37356
DMSP 5D-3 F17 (USA 191) 
1 29522U 06050A   24303.15600534  .00000784  00000+0  43034-3 0  9992
2 29522  98.7445 310.9840 0009379 323.1114  36.9413 14.14634127928139
FENGYUN 3A              
1 32958U 08026A   24303.13094741  .00000803  00000+0  40320-3 0  9996
2 32958  98.6192 246.4681 0009650  50.6702 309.5328 14.19250599850957
NOAA 19                 
1 33591U 09005A   24303.12448284  .00000730  00000+0  41461-3 0  9998
2 33591  99.0314   0.2449 0012853 274.7569  85.2135 14.13173576810547
GOES 14                 
1 35491U 09033A   24303.04282701 -.00000059  00000+0  00000+0 0  9996
2 35491   0.1315  91.5004 0003565 101.8336 111.3878  1.00271919 56172
DMSP 5D-3 F18 (USA 210) 
1 35951U 09057A   24303.19231728  .00000962  00000+0  52597-3 0  9996
2 35951  98.8321 276.8634 0011623 140.4506 219.7517 14.14348195775309
EWS-G2 (GOES 15)        
1 36411U 10008A   24303.14801813  .00000044  00000+0  00000+0 0  9998
2 36411   0.2519 273.7537 0006873 321.9729 276.9252  1.00274909 53659
COMS 1                  
1 36744U 10032A   24302.87479590 -.00000336  00000+0  00000+0 0  9991
2 36744   3.2923  83.0128 0000854 157.2617 240.4999  1.00269780 45114
FENGYUN 3B              
1 37214U 10059A   24303.17273470  .00000491  00000+0  27869-3 0  9993
2 37214  99.0439 333.0757 0023129  74.9600 326.9762 14.14604039723193
SUOMI NPP               
1 37849U 11061A   24303.17438604  .00000493  00000+0  25437-3 0  9994
2 37849  98.7330 239.1898 0000830 137.6510 222.4731 14.19543345673878
FENGYUN 2F              
1 38049U 12002A   24303.03596345  .00000067  00000+0  00000+0 0  9997
2 38049   6.0719  72.6537 0002457 149.5001  45.8022  0.99137678 46884
METEOSAT-10 (MSG-3)     
1 38552U 12035B   24303.13585484  .00000003  00000+0  00000+0 0  9995
2 38552   3.2699  61.6528 0000984 227.5067 157.7048  1.00272247 45244
METOP-B                 
1 38771U 12049A   24303.19285983  .00000676  00000+0  32807-3 0  9990
2 38771  98.6119 357.3027 0001392  87.9279 272.2058 14.21560404628588
INSAT-3D                
1 39216U 13038B   24302.87505654 -.00000332  00000+0  00000+0 0  9994
2 39216   0.3774  90.9590 0002152 142.5715 248.7669  1.00272426 41103
FENGYUN 3C              
1 39260U 13052A   24303.25751446  .00000553  00000+0  29941-3 0  9997
2 39260  98.4382 295.8216 0010115 304.0464  55.9750 14.16324095574303
METEOR-M 2              
1 40069U 14037A   24303.23435476  .00000714  00000+0  34768-3 0  9992
2 40069  98.4488 291.5662 0005317 340.9476  19.1502 14.21109488534662
HIMAWARI-8              
1 40267U 14060A   24302.44838668 -.00000271  00000+0  00000+0 0  9997
2 40267   0.0079 209.9373 0001025  36.9007  92.5360  1.00272398 36773
FENGYUN 2G              
1 40367U 14090A   24302.94117689 -.00000293  00000+0  00000+0 0  9993
2 40367   4.1182  79.9818 0001883 177.8279 218.3101  1.00278390 36062
METEOSAT-11 (MSG-4)     
1 40732U 15034A   24303.13767933  .00000070  00000+0  00000+0 0  9995
2 40732   1.7098  71.1303 0001153 165.6168 220.0220  1.00269013 34031
ELEKTRO-L 2             
1 41105U 15074A   24303.13298779 -.00000105  00000+0  00000+0 0  9991
2 41105   5.1814  77.8166 0003663 175.9078 177.6266  1.00271276 32536
INSAT-3DR               
1 41752U 16054A   24303.18070271 -.00000070  00000+0  00000+0 0  9999
2 41752   0.1669  91.0343 0013477 174.0889 271.9462  1.00272448 29822
HIMAWARI-9              
1 41836U 16064A   24302.54702056 -.00000270  00000+0  00000+0 0  9997
2 41836   0.0457 146.8259 0001017  75.1783 153.0753  1.00273851 29322
GOES 16                 
1 41866U 16071A   24301.97657972 -.00000246  00000+0  00000+0 0  9993
2 41866   0.0333 283.6749 0000930 358.3494  31.1758  1.00272937 29112
FENGYUN 4A              
1 41882U 16077A   24303.08157568 -.00000190  00000+0  00000+0 0  9995
2 41882   0.7961  85.7653 0009120 340.0251  87.7913  1.00279068 29008
CYGFM05                 
1 41884U 16078A   24302.93392574  .00029987  00000+0  95103-3 0  9995
2 41884  34.9629 171.7959 0012520 336.6604  23.3543 15.31658536436564
CYGFM04                 
1 41885U 16078B   24302.90318148  .00031337  00000+0  96191-3 0  9998
2 41885  34.9367 154.5986 0011020 350.6865   9.3646 15.32705812436662
CYGFM02                 
1 41886U 16078C   24302.89697542  .00032646  00000+0  98795-3 0  9991
2 41886  34.9455 156.5401 0013842 344.9828  15.0476 15.33113793436751
CYGFM01                 
1 41887U 16078D   24302.93533728  .00029949  00000+0  95730-3 0  9990
2 41887  34.9460 175.7948 0012681 321.7180  38.2635 15.31405152436497
CYGFM08                 
1 41888U 16078E   24302.93215376  .00031152  00000+0  96136-3 0  9997
2 41888  34.9479 162.7090 0014186 342.5960  17.4270 15.32497379436689
CYGFM07                 
1 41890U 16078G   24302.94407416  .00030923  00000+0  94338-3 0  9996
2 41890  34.9498 153.6569 0011585 358.9644   1.1047 15.32897124436687
CYGFM03                 
1 41891U 16078H   24302.92310544  .00031010  00000+0  95058-3 0  9998
2 41891  34.9439 155.0951 0010479 342.2413  17.7936 15.32756726436665
FENGYUN 3D              
1 43010U 17072A   24303.16952019  .00000610  00000+0  31148-3 0  9996
2 43010  98.9293 258.7195 0001190 358.7902   1.3270 14.19474549360428
NOAA 20 (JPSS-1)        
1 43013U 17073A   24303.19150788  .00000456  00000+0  23714-3 0  9994
2 43013  98.7172 238.9121 0001526 138.5177 221.6116 14.19549496359917
GOES 17                 
1 43226U 18022A   24303.11509042 -.00000084  00000+0  00000+0 0  9995
2 43226   0.0059 186.1510 0003067  51.7998  96.7408  1.00273225 24451
FENGYUN 2H              
1 43491U 18050A   24303.08009872 -.00000117  00000+0  00000+0 0  9999
2 43491   1.4878  85.9560 0001750 139.8178 279.9858  1.00267510 23537
METOP-C                 
1 43689U 18087A   24303.16159982  .00000670  00000+0  32618-3 0  9992
2 43689  98.7079   0.7654 0002459  78.8254 281.3200 14.21490284310159
GEO-KOMPSAT-2A          
1 43823U 18100A   24302.94691101 -.00000338  00000+0  00000+0 0  9995
2 43823   0.0254  92.3613 0001015  40.6752  13.8853  1.00267428 21683
METEOR-M2 2             
1 44387U 19038A   24303.21967257  .00000723  00000+0  33424-3 0  9998
2 44387  98.8460 273.0931 0000675 359.5152   0.6025 14.24036955276463
ARKTIKA-M 1             
1 47719U 21016A   24300.84899715  .00000089  00000+0  00000+0 0  9993
2 47719  63.1345 136.4493 6990712 268.5068  17.6152  2.00611094 26789
FENGYUN 3E              
1 49008U 21062A   24303.17602440  .00000232  00000+0  13022-3 0  9995
2 49008  98.7387 302.7005 0002057  38.6677 321.4646 14.19805156172009
GOES 18                 
1 51850U 22021A   24300.17705263  .00000091  00000+0  00000+0 0  9994
2 51850   0.0416  57.4334 0001118 202.2023  62.1795  1.00276407  9792
NOAA 21 (JPSS-2)        
1 54234U 22150A   24303.15788463  .00000582  00000+0  29699-3 0  9994
2 54234  98.7628 239.5287 0002092  94.9801 265.1614 14.19551605101981
METEOSAT-12 (MTG-I1)    
1 54743U 22170C   24302.92136814  .00000000  00000+0  00000+0 0  9998
2 54743   0.5702  37.2540 0001266 155.5088 176.4072  1.00268667  6994
TIANMU-1 03             
1 55973U 23039A   24303.16239703  .00026601  00000+0  10035-2 0  9994
2 55973  97.4809  93.4427 0005433  73.6459 286.5377 15.27005379 89268
TIANMU-1 04             
1 55974U 23039B   24303.13639985  .00026175  00000+0  98329-3 0  9997
2 55974  97.4734  92.8624 0006426  70.1316 290.0615 15.27143039 89255
TIANMU-1 05             
1 55975U 23039C   24303.12968205  .00026271  00000+0  99143-3 0  9999
2 55975  97.4780  93.2462 0005161  89.6185 270.5645 15.26997416 89246
TIANMU-1 06             
1 55976U 23039D   24303.16056786  .00026302  00000+0  98512-3 0  9990
2 55976  97.4795  93.4613 0005680  87.5485 272.6404 15.27244618 89256
METEOR-M2 3             
1 57166U 23091A   24303.18775600  .00000198  00000+0  10552-3 0  9999
2 57166  98.6968 356.5542 0005075 100.0011 260.1740 14.23942940 69691
TIANMU-1 07             
1 57399U 23101A   24303.20005654  .00017278  00000+0  80043-3 0  9996
2 57399  97.3471 356.7149 0006245  84.3650 275.8297 15.20140011 70769
TIANMU-1 08             
1 57400U 23101B   24303.16873496  .00018421  00000+0  85186-3 0  9995
2 57400  97.3460 356.5402 0008452  87.5806 272.6397 15.20172853 70754
TIANMU-1 09             
1 57401U 23101C   24303.15113528  .00018405  00000+0  85293-3 0  9999
2 57401  97.3417 356.2876 0008291  85.3757 274.8425 15.20101095 70757
TIANMU-1 10             
1 57402U 23101D   24303.18456192  .00018445  00000+0  85411-3 0  9996
2 57402  97.3495 356.7336 0010338  83.3390 276.9021 15.20111170 70756
FENGYUN 3F              
1 57490U 23111A   24303.19256474  .00000486  00000+0  24981-3 0  9997
2 57490  98.7566  11.0041 0001844  81.7291 278.4094 14.19919511 64285
ARKTIKA-M 2             
1 58584U 23198A   24298.58929184  .00000046  00000+0  00000+0 0  9992
2 58584  63.2415 220.5729 6931744 269.6155  17.6899  2.00604890  6272
TIANMU-1 11             
1 58645U 23205A   24303.15301529  .00015727  00000+0  78013-3 0  9991
2 58645  97.3948 324.9477 0009370 304.7588  55.2763 15.17764375 46813
